ORBCOMM-X [-]           
1 21576U 91050C   24059.75698895  .00000420  00000+0  14017-3 0  9994
2 21576  98.4021 128.7025 0003998 162.6381 197.4947 14.42381735713705
ORBCOMM FM01 [-]        
1 23545U 95017A   24060.09545719  .00004813  00000+0  66480-3 0  9995
2 23545  69.9682 165.4745 0008115 304.4348  55.6033 14.78709644542513
ORBCOMM FM02 [-]        
1 23546U 95017B   24059.76607547  .00005396  00000+0  75144-3 0  9990
2 23546  69.9702 185.5731 0009876 302.0197  57.9991 14.78279005541763
ORBCOMM FM08 [-]        
1 25112U 97084A   24059.98237851  .00001716  00000+0  56058-3 0  9993
2 25112  45.0137 117.5148 0006657 357.8293   2.2527 14.42079077373003
ORBCOMM FM10 [-]        
1 25113U 97084B   24059.84672687  .00001700  00000+0  55661-3 0  9991
2 25113  45.0149 119.9653 0005559 321.9627  38.0830 14.42005243547963
ORBCOMM FM11 [+]        
1 25114U 97084C   24059.85958615  .00001630  00000+0  53653-3 0  9992
2 25114  45.0134 119.9163 0006228 325.0243  35.0197 14.41891274372939
ORBCOMM FM12 [-]        
1 25115U 97084D   24059.54057553  .00001576  00000+0  52076-3 0  9997
2 25115  45.0140 121.1106 0005329 320.6195  39.4267 14.41861628372922
ORBCOMM FM09 [-]        
1 25116U 97084E   24059.48093243  .00001806  00000+0  59042-3 0  9993
2 25116  45.0143 122.0615 0006794 311.6978  48.3290 14.41828536372888
